{"generatedAt":"2026-05-05T08:19:47.084492Z","satellites":[{"name":"ONEWEB-0706","tle1":"1 61611U 24188T   26124.76478583  .00000739  00000+0  20816-2 0  9998","tle2":"2 61611  87.8856  44.9052 0001256  72.7295 287.3970 13.10374142 77690"},{"name":"ONEWEB-0707","tle1":"1 61612U 24188U   26124.77142916  .00000625  00000+0  17534-2 0  9995","tle2":"2 61612  87.8861  44.8955 0001314  70.2448 289.8821 13.10371930 77634"},{"name":"ONEWEB-0708","tle1":"1 61613U 24188V   26124.78967477 -.00000186  00000+0 -56962-3 0  9997","tle2":"2 61613  87.8849  44.9143 0001659  96.2753 263.8563 13.10370891 77618"}]}